[{"OBJECT_NAME":"STARLINK-5459","OBJECT_ID":"2023-021AT","EPOCH":"2026-03-09T16:26:52.969920","MEAN_MOTION":14.98337361,"ECCENTRICITY":0.00034326,"INCLINATION":70.0008,"RA_OF_ASC_NODE":164.4772,"ARG_OF_PERICENTER":272.8333,"MEAN_ANOMALY":87.2433,"EPHEMERIS_TYPE":0,"CLASSIFICATION_TYPE":"U","NORAD_CAT_ID":55669,"ELEMENT_SET_NO":999,"REV_AT_EPOCH":16927,"BSTAR":-4.705109e-5,"MEAN_MOTION_DOT":-6.55e-6,"MEAN_MOTION_DDOT":0},{"OBJECT_NAME":"COSMOS 1238","OBJECT_ID":"1981-003A","EPOCH":"2026-03-09T22:03:18.626112","MEAN_MOTION":14.12425394,"ECCENTRICITY":0.06407052,"INCLINATION":82.9572,"RA_OF_ASC_NODE":297.0051,"ARG_OF_PERICENTER":13.743,"MEAN_ANOMALY":348.0299,"EPHEMERIS_TYPE":0,"CLASSIFICATION_TYPE":"U","NORAD_CAT_ID":12138,"ELEMENT_SET_NO":999,"REV_AT_EPOCH":25589,"BSTAR":0.00028175975,"MEAN_MOTION_DOT":4.214e-5,"MEAN_MOTION_DDOT":0}]
